*******************************************************************************
Ephemeris / WWW_USER Fri Mar  7 10:36:41 2025 Pasadena, USA      / Horizons    
*******************************************************************************
Target body name: (2017 SN16)                     {source: JPL#20}
Center body name: Earth (399)                     {source: DE441}
Center-site name: Mauna Kea
*******************************************************************************
Start time      : A.D. 2018-Aug-09 05:04:00.0000 UT      
Stop  time      : A.D. 2018-Aug-09 15:50:00.0000 UT      
Step-size       : 1 minutes
*******************************************************************************
Target pole/equ : undefined
Target radii    : undefined                                                    
Center geodetic : 204.5278, 19.8260847, 4.21024   {E-lon(deg),Lat(deg),Alt(km)}
Center cylindric: 204.5278, 6006.35451, 2151.0229 {E-lon(deg),Dxy(km),Dz(km)}
Center pole/equ : ITRF93                          {East-longitude positive}
Center radii    : 6378.137, 6378.137, 6356.752 km {Equator_a, b, pole_c}       
Target primary  : Sun
Vis. interferer : MOON (R_eq= 1737.400) km        {source: DE441}
Rel. light bend : Sun                             {source: DE441}
Rel. lght bnd GM: 1.3271E+11 km^3/s^2                                          
Small-body perts: Yes                             {source: SB441-N16}
Atmos refraction: NO (AIRLESS)
RA format       : HMS
Time format     : CAL 
Calendar mode   : Mixed Julian/Gregorian
RTS-only print  : NO       
EOP file        : eop.250306.p250602                                           
EOP coverage    : DATA-BASED 1962-JAN-20 TO 2025-MAR-06. PREDICTS-> 2025-JUN-01
Units conversion: 1 au= 149597870.700 km, c= 299792.458 km/s, 1 day= 86400.0 s 
Table cut-offs 1: Elevation (-90.0deg=NO ),Airmass (>38.000=NO), Daylight (YES)
Table cut-offs 2: Solar elongation (  0.0,180.0=NO ),Local Hour Angle( 0.0=NO )
Table cut-offs 3: RA/DEC angular rate (     0.0=NO )                           
*******************************************************************************
Initial IAU76/J2000 heliocentric ecliptic osculating elements (au, days, deg.):
  EPOCH=  2458305.5 ! 2018-Jul-06.00 (TDB)         Residual RMS= .23751        
   EC= .1454884975659386   QR= .8682464985612274   TP= 2458145.5722438502      
   OM= 2.759719470837934   W=  137.1017088998531   IN= 13.38264682844635       
  Equivalent ICRF heliocentric cartesian coordinates (au, au/d):
   X= 5.756755401261899E-01  Y=-7.953424559592890E-01  Z=-6.031561894536019E-01
  VX= 1.332076113263395E-02 VY= 5.454663564585547E-03 VZ= 3.896229736425836E-03
Asteroid physical parameters (km, seconds, rotational period in hours):        
   GM= n.a.                RAD= n.a.               ROTPER= n.a.                
   H= 23.34                G= .150                 B-V= n.a.                   
                           ALBEDO= n.a.            STYP= n.a.                  
*******************************************************************************
 Date__(UT)__HR:MN     R.A._________(ICRF)_________DEC
******************************************************
$$SOE
 2018-Aug-09 13:16     01 49 58.808775 -27 52 40.27570
 2018-Aug-09 13:17     01 49 58.805329 -27 52 40.13023
 2018-Aug-09 13:18     01 49 58.801862 -27 52 39.98452
 2018-Aug-09 13:19     01 49 58.798373 -27 52 39.83857
 2018-Aug-09 13:20     01 49 58.794864 -27 52 39.69238
 2018-Aug-09 13:21     01 49 58.791333 -27 52 39.54595
 2018-Aug-09 13:22     01 49 58.787782 -27 52 39.39928
 2018-Aug-09 13:23     01 49 58.784210 -27 52 39.25236
 2018-Aug-09 13:24     01 49 58.780618 -27 52 39.10520
 2018-Aug-09 13:25     01 49 58.777006 -27 52 38.95780
 2018-Aug-09 13:26     01 49 58.773374 -27 52 38.81015
 2018-Aug-09 13:27     01 49 58.769721 -27 52 38.66226
 2018-Aug-09 13:28     01 49 58.766050 -27 52 38.51413
 2018-Aug-09 13:29     01 49 58.762359 -27 52 38.36575
 2018-Aug-09 13:30     01 49 58.758648 -27 52 38.21712
 2018-Aug-09 13:31     01 49 58.754918 -27 52 38.06825
 2018-Aug-09 13:32     01 49 58.751170 -27 52 37.91913
 2018-Aug-09 13:33     01 49 58.747403 -27 52 37.76977
 2018-Aug-09 13:34     01 49 58.743617 -27 52 37.62015
 2018-Aug-09 13:35     01 49 58.739812 -27 52 37.47029
 2018-Aug-09 13:36     01 49 58.735989 -27 52 37.32018
 2018-Aug-09 13:37     01 49 58.732149 -27 52 37.16982
 2018-Aug-09 13:38     01 49 58.728290 -27 52 37.01921
 2018-Aug-09 13:39     01 49 58.724414 -27 52 36.86836
 2018-Aug-09 13:40     01 49 58.720520 -27 52 36.71725
 2018-Aug-09 13:41     01 49 58.716608 -27 52 36.56589
 2018-Aug-09 13:42     01 49 58.712680 -27 52 36.41428
 2018-Aug-09 13:43     01 49 58.708734 -27 52 36.26242
 2018-Aug-09 13:44     01 49 58.704772 -27 52 36.11031
 2018-Aug-09 13:45     01 49 58.700793 -27 52 35.95794
 2018-Aug-09 13:46     01 49 58.696797 -27 52 35.80532
 2018-Aug-09 13:47     01 49 58.692785 -27 52 35.65245
 2018-Aug-09 13:48     01 49 58.688757 -27 52 35.49933
 2018-Aug-09 13:49     01 49 58.684713 -27 52 35.34595
 2018-Aug-09 13:50     01 49 58.680653 -27 52 35.19232
 2018-Aug-09 13:51     01 49 58.676578 -27 52 35.03844
 2018-Aug-09 13:52     01 49 58.672487 -27 52 34.88430
 2018-Aug-09 13:53     01 49 58.668381 -27 52 34.72990
 2018-Aug-09 13:54     01 49 58.664260 -27 52 34.57525
 2018-Aug-09 13:55     01 49 58.660124 -27 52 34.42034
 2018-Aug-09 13:56     01 49 58.655973 -27 52 34.26518
 2018-Aug-09 13:57     01 49 58.651808 -27 52 34.10976
 2018-Aug-09 13:58     01 49 58.647628 -27 52 33.95408
 2018-Aug-09 13:59     01 49 58.643434 -27 52 33.79815
 2018-Aug-09 14:00     01 49 58.639227 -27 52 33.64196
 2018-Aug-09 14:01  m  01 49 58.635005 -27 52 33.48551
 2018-Aug-09 14:02  m  01 49 58.630770 -27 52 33.32880
 2018-Aug-09 14:03  m  01 49 58.626521 -27 52 33.17183
 2018-Aug-09 14:04  m  01 49 58.622260 -27 52 33.01461
 2018-Aug-09 14:05  m  01 49 58.617985 -27 52 32.85713
 2018-Aug-09 14:06  m  01 49 58.613697 -27 52 32.69938
 2018-Aug-09 14:07  m  01 49 58.609396 -27 52 32.54138
 2018-Aug-09 14:08  m  01 49 58.605084 -27 52 32.38312
 2018-Aug-09 14:09  m  01 49 58.600758 -27 52 32.22459
 2018-Aug-09 14:10  m  01 49 58.596421 -27 52 32.06581
 2018-Aug-09 14:11  m  01 49 58.592071 -27 52 31.90677
 2018-Aug-09 14:12  m  01 49 58.587710 -27 52 31.74746
 2018-Aug-09 14:13  m  01 49 58.583337 -27 52 31.58790
 2018-Aug-09 14:14  m  01 49 58.578953 -27 52 31.42807
 2018-Aug-09 14:15  m  01 49 58.574558 -27 52 31.26798
 2018-Aug-09 14:16  m  01 49 58.570151 -27 52 31.10763
 2018-Aug-09 14:17  m  01 49 58.565734 -27 52 30.94701
 2018-Aug-09 14:18  m  01 49 58.561306 -27 52 30.78614
 2018-Aug-09 14:19  m  01 49 58.556867 -27 52 30.62500
 2018-Aug-09 14:20  m  01 49 58.552418 -27 52 30.46360
 2018-Aug-09 14:21  m  01 49 58.547959 -27 52 30.30193
 2018-Aug-09 14:22  m  01 49 58.543490 -27 52 30.14000
 2018-Aug-09 14:23  m  01 49 58.539012 -27 52 29.97781
 2018-Aug-09 14:24  m  01 49 58.534524 -27 52 29.81535
 2018-Aug-09 14:25  m  01 49 58.530026 -27 52 29.65263
 2018-Aug-09 14:26  m  01 49 58.525519 -27 52 29.48965
 2018-Aug-09 14:27  m  01 49 58.521004 -27 52 29.32640
 2018-Aug-09 14:28  m  01 49 58.516479 -27 52 29.16289
 2018-Aug-09 14:29  m  01 49 58.511946 -27 52 28.99911
 2018-Aug-09 14:30  m  01 49 58.507404 -27 52 28.83507
 2018-Aug-09 14:31  m  01 49 58.502854 -27 52 28.67076
 2018-Aug-09 14:32  m  01 49 58.498296 -27 52 28.50619
 2018-Aug-09 14:33  m  01 49 58.493730 -27 52 28.34135
 2018-Aug-09 14:34  m  01 49 58.489157 -27 52 28.17625
 2018-Aug-09 14:35  m  01 49 58.484576 -27 52 28.01088
 2018-Aug-09 14:36  m  01 49 58.479987 -27 52 27.84524
 2018-Aug-09 14:37  m  01 49 58.475392 -27 52 27.67934
 2018-Aug-09 14:38  m  01 49 58.470789 -27 52 27.51317
 2018-Aug-09 14:39  m  01 49 58.466180 -27 52 27.34674
 2018-Aug-09 14:40  m  01 49 58.461564 -27 52 27.18004
 2018-Aug-09 14:41  m  01 49 58.456942 -27 52 27.01308
 2018-Aug-09 14:42  m  01 49 58.452314 -27 52 26.84584
 2018-Aug-09 14:43 Am  01 49 58.447680 -27 52 26.67834
 2018-Aug-09 14:44 Am  01 49 58.443039 -27 52 26.51058
 2018-Aug-09 14:45 Am  01 49 58.438394 -27 52 26.34254
 2018-Aug-09 14:46 Am  01 49 58.433742 -27 52 26.17424
 2018-Aug-09 14:47 Am  01 49 58.429086 -27 52 26.00568
 2018-Aug-09 14:48 Am  01 49 58.424424 -27 52 25.83684
 2018-Aug-09 14:49 Am  01 49 58.419758 -27 52 25.66774
 2018-Aug-09 14:50 Am  01 49 58.415087 -27 52 25.49837
 2018-Aug-09 14:51 Am  01 49 58.410411 -27 52 25.32874
 2018-Aug-09 14:52 Am  01 49 58.405731 -27 52 25.15883
 2018-Aug-09 14:53 Am  01 49 58.401047 -27 52 24.98866
 2018-Aug-09 14:54 Am  01 49 58.396359 -27 52 24.81822
 2018-Aug-09 14:55 Am  01 49 58.391667 -27 52 24.64752
 2018-Aug-09 14:56 Am  01 49 58.386972 -27 52 24.47654
 2018-Aug-09 14:57 Am  01 49 58.382273 -27 52 24.30530
 2018-Aug-09 14:58 Am  01 49 58.377572 -27 52 24.13379
 2018-Aug-09 14:59 Am  01 49 58.372867 -27 52 23.96202
 2018-Aug-09 15:00 Am  01 49 58.368159 -27 52 23.78997
 2018-Aug-09 15:01 At  01 49 58.363449 -27 52 23.61766
 2018-Aug-09 15:02 Am  01 49 58.358736 -27 52 23.44508
 2018-Aug-09 15:03 Am  01 49 58.354021 -27 52 23.27223
 2018-Aug-09 15:04 Am  01 49 58.349305 -27 52 23.09912
 2018-Aug-09 15:05 Am  01 49 58.344586 -27 52 22.92573
 2018-Aug-09 15:06 Am  01 49 58.339865 -27 52 22.75208
 2018-Aug-09 15:07 Am  01 49 58.335143 -27 52 22.57817
 2018-Aug-09 15:08 Am  01 49 58.330420 -27 52 22.40398
 2018-Aug-09 15:09 Am  01 49 58.325696 -27 52 22.22953
 2018-Aug-09 15:10 Am  01 49 58.320971 -27 52 22.05480
 2018-Aug-09 15:11 Nm  01 49 58.316245 -27 52 21.87981
 2018-Aug-09 15:12 Nm  01 49 58.311518 -27 52 21.70456
 2018-Aug-09 15:13 Nm  01 49 58.306791 -27 52 21.52903
 2018-Aug-09 15:14 Nm  01 49 58.302065 -27 52 21.35324
 2018-Aug-09 15:15 Nm  01 49 58.297338 -27 52 21.17718
 2018-Aug-09 15:16 Nm  01 49 58.292611 -27 52 21.00086
 2018-Aug-09 15:17 Nm  01 49 58.287885 -27 52 20.82426
 2018-Aug-09 15:18 Nm  01 49 58.283159 -27 52 20.64740
